NORAD_CAT_ID,OBJECT_NAME,OBJECT_TYPE,EPOCH,MEAN_MOTION,ECCENTRICITY,INCLINATION,RA_OF_ASC_NODE,ARG_OF_PERICENTER,MEAN_ANOMALY,BSTAR,MEAN_MOTION_DOT,MEAN_MOTION_DDOT,TLE_LINE0,TLE_LINE1,TLE_LINE2,SEMIMAJOR_AXIS,PERIOD,APOGEE,PERIGEE,DECAYED
53563.0,STARLINK-4561,PAYLOAD,2023-05-21 14:56:28,15.08811557,7.09e-05,53.2147,327.0819,211.5438,148.5512,-7.9095e-05,-1.545e-05,0.0,0 STARLINK-4561,1 53563U 22101AN  23141.62255078 -.00001545  00000-0 -79095-4 0  9995,2 53563  53.2147 327.0819 0000709 211.5438 148.5512 15.08811557 41996,6917.967,95.439,540.323,539.342,0.0
53563.0,STARLINK-4561,PAYLOAD,2023-05-21 21:18:01,15.08823421,9.54e-05,53.2147,325.8858,83.0293,277.0808,-0.00018191,-3.18e-05,0.0,0 STARLINK-4561,1 53563U 22101AN  23141.88751457 -.00003180  00000-0 -18191-3 0  9991,2 53563  53.2147 325.8858 0000954  83.0293 277.0808 15.08823421 42033,6917.931,95.439,540.456,539.136,0.0
53563.0,STARLINK-4561,PAYLOAD,2023-05-22 05:14:56,15.08832158,8.92e-05,53.2149,324.3991,82.6163,277.493,8.9294e-05,1.133e-05,0.0,0 STARLINK-4561,1 53563U 22101AN  23142.21871490  .00001133  00000-0  89294-4 0  9996,2 53563  53.2149 324.3991 0000892  82.6163 277.4930 15.08832158 42081,6917.904,95.438,540.386,539.152,0.0
53563.0,STARLINK-4561,PAYLOAD,2023-05-22 11:36:29,15.08837084,8.99e-05,53.2158,323.2066,71.8308,288.2782,0.00023234,3.412e-05,0.0,0 STARLINK-4561,1 53563U 22101AN  23142.48367526  .00003412  00000-0  23234-3 0  9998,2 53563  53.2158 323.2066 0000899  71.8308 288.2782 15.08837084 42123,6917.889,95.438,540.376,539.132,0.0
53563.0,STARLINK-4561,PAYLOAD,2023-05-22 21:08:48,15.08852729,8.8e-05,53.2154,321.4232,64.922,295.1864,0.0011159,0.00017522,0.0,0 STARLINK-4561,1 53563U 22101AN  23142.88111626  .00017522  00000-0  11159-2 0  9999,2 53563  53.2154 321.4232 0000880  64.9220 295.1864 15.08852729 42187,6917.841,95.437,540.315,539.098,0.0
53563.0,STARLINK-4561,PAYLOAD,2023-05-23 11:27:16,15.0884225,0.0001106,53.2143,318.7471,86.2433,273.8685,0.0012098,0.0001902,0.0,0 STARLINK-4561,1 53563U 22101AN  23143.47727617  .00019020  00000-0  12098-2 0  9996,2 53563  53.2143 318.7471 0001106  86.2433 273.8685 15.08842250 42276,6917.874,95.437,540.504,538.973,0.0
53563.0,STARLINK-4561,PAYLOAD,2023-05-23 22:34:58,15.08855795,8.31e-05,53.2156,316.6659,65.785,294.3229,0.0012867,0.00020258,0.0,0 STARLINK-4561,1 53563U 22101AN  23143.94095334  .00020258  00000-0  12867-2 0  9991,2 53563  53.2156 316.6659 0000831  65.7850 294.3229 15.08855795 42342,6917.832,95.437,540.272,539.122,0.0
53563.0,STARLINK-4561,PAYLOAD,2023-05-24 04:56:31,15.08848034,8.86e-05,53.2159,315.4763,71.0344,289.0744,0.00092272,0.00014431,0.0,0 STARLINK-4561,1 53563U 22101AN  23144.20591458  .00014431  00000-0  92272-3 0  9994,2 53563  53.2159 315.4763 0000886  71.0344 289.0744 15.08848034 42381,6917.856,95.437,540.334,539.108,0.0
53563.0,STARLINK-4561,PAYLOAD,2023-05-25 14:19:36,15.08840996,0.000101,53.2168,309.2323,66.5047,293.6051,0.00015782,2.225e-05,0.0,0 STARLINK-4561,1 53563U 22101AN  23145.59695546  .00002225  00000-0  15782-3 0  9999,2 53563  53.2168 309.2323 0001010  66.5047 293.6051 15.08840996 42597,6917.877,95.437,540.441,539.044,0.0
53563.0,STARLINK-4561,PAYLOAD,2023-05-25 15:55:00,15.08842062,9.7e-05,53.2169,308.9352,67.072,293.0374,0.00013202,1.814e-05,0.0,0 STARLINK-4561,1 53563U 22101AN  23145.66319522  .00001814  00000-0  13202-3 0  9992,2 53563  53.2169 308.9352 0000970  67.0720 293.0374 15.08842062 42604,6917.874,95.437,540.41,539.068,0.0
53563.0,STARLINK-4561,PAYLOAD,2023-05-26 14:10:23,15.08842746,9.73e-05,53.2168,304.7709,81.8179,278.2924,0.00012228,1.659e-05,0.0,0 STARLINK-4561,1 53563U 22101AN  23146.59055449  .00001659  00000-0  12228-3 0  9994,2 53563  53.2168 304.7709 0000973  81.8179 278.2924 15.08842746 42748,6917.872,95.437,540.41,539.064,0.0
53563.0,STARLINK-4561,PAYLOAD,2023-05-26 17:21:10,15.0884282,9.18e-05,53.2162,304.1751,94.9621,265.1476,0.00012869,1.761e-05,0.0,0 STARLINK-4561,1 53563U 22101AN  23146.72303349  .00001761  00000-0  12869-3 0  9999,2 53563  53.2162 304.1751 0000918  94.9621 265.1476 15.08842820 42761,6917.872,95.437,540.372,539.102,0.0
53563.0,STARLINK-4561,PAYLOAD,2023-05-26 20:31:56,15.0884289,9.2e-05,53.2162,303.5804,94.3578,265.7519,0.00011696,1.574e-05,0.0,0 STARLINK-4561,1 53563U 22101AN  23146.85551309  .00001574  00000-0  11696-3 0  9993,2 53563  53.2162 303.5804 0000920  94.3578 265.7519 15.08842890 42784,6917.872,95.437,540.373,539.1,0.0
53563.0,STARLINK-4561,PAYLOAD,2023-05-27 10:50:24,15.08836208,9.3e-05,53.2158,300.9034,102.4106,257.699,1.0949e-05,-1.13e-06,0.0,0 STARLINK-4561,1 53563U 22101AN  23147.45167625 -.00000113  00000-0  10949-4 0  9994,2 53563  53.2158 300.9034 0000930 102.4106 257.6990 15.08836208 42873,6917.892,95.438,540.4,539.114,0.0
53563.0,STARLINK-4561,PAYLOAD,2023-05-27 17:11:57,15.08839675,8.17e-05,53.2161,299.7152,92.6977,267.4109,8.531e-05,1.07e-05,0.0,0 STARLINK-4561,1 53563U 22101AN  23147.71663527  .00001070  00000-0  85310-4 0  9991,2 53563  53.2161 299.7152 0000817  92.6977 267.4109 15.08839675 42910,6917.881,95.438,540.312,539.181,0.0
53563.0,STARLINK-4561,PAYLOAD,2023-05-28 02:44:16,15.08840026,8e-05,53.2162,297.931,106.841,253.267,0.0001006,1.314e-05,0.0,0 STARLINK-4561,1 53563U 22101AN  23148.11407454  .00001314  00000-0  10060-3 0  9991,2 53563  53.2162 297.9310 0000800 106.8410 253.2670 15.08840026 42973,6917.88,95.438,540.299,539.192,0.0
53563.0,STARLINK-4561,PAYLOAD,2023-05-28 17:02:44,15.08844472,7.92e-05,53.2165,295.2561,87.0161,273.0921,9.5856e-05,1.238e-05,0.0,0 STARLINK-4561,1 53563U 22101AN  23148.71023414  .00001238  00000-0  95856-4 0  9999,2 53563  53.2165 295.2561 0000792  87.0161 273.0921 15.08844472 43067,6917.867,95.437,540.28,539.184,0.0
53563.0,STARLINK-4561,PAYLOAD,2023-05-28 20:13:30,15.08849724,8.04e-05,53.2165,294.6606,93.9248,266.1836,0.00011911,1.609e-05,0.0,0 STARLINK-4561,1 53563U 22101AN  23148.84271009  .00001609  00000-0  11911-3 0  9999,2 53563  53.2165 294.6606 0000804  93.9248 266.1836 15.08849724 43081,6917.851,95.437,540.272,539.159,0.0
53563.0,STARLINK-4561,PAYLOAD,2023-05-29 08:56:35,15.0883597,8.47e-05,53.2153,292.2811,95.564,264.5449,3.0453e-05,1.97e-06,0.0,0 STARLINK-4561,1 53563U 22101AN  23149.37263703  .00000197  00000-0  30453-4 0  9994,2 53563  53.2153 292.2811 0000847  95.5640 264.5449 15.08835970 43160,6917.893,95.438,540.344,539.172,0.0
53563.0,STARLINK-4561,PAYLOAD,2023-05-29 13:42:45,15.08837785,8.2e-05,53.2163,291.3905,97.7764,262.3322,8.5016e-05,1.066e-05,0.0,0 STARLINK-4561,1 53563U 22101AN  23149.57135912  .00001066  00000-0  85016-4 0  9997,2 53563  53.2163 291.3905 0000820  97.7764 262.3322 15.08837785 43192,6917.887,95.438,540.319,539.185,0.0
53563.0,STARLINK-4561,PAYLOAD,2023-05-29 16:53:31,15.08841075,7.98e-05,53.2164,290.7956,96.9016,263.2067,6.6143e-05,7.65e-06,0.0,0 STARLINK-4561,1 53563U 22101AN  23149.70383688  .00000765  00000-0  66143-4 0  9992,2 53563  53.2164 290.7956 0000798  96.9016 263.2067 15.08841075 43213,6917.877,95.437,540.294,539.19,0.0
53563.0,STARLINK-4561,PAYLOAD,2023-05-30 08:47:22,15.08837823,7.97e-05,53.2161,287.822,101.967,258.1411,7.1495e-05,8.5e-06,0.0,0 STARLINK-4561,1 53563U 22101AN  23150.36623831  .00000850  00000-0  71495-4 0  9994,2 53563  53.2161 287.8220 0000797 101.9670 258.1411 15.08837823 43316,6917.887,95.438,540.303,539.201,0.0
53563.0,STARLINK-4561,PAYLOAD,2023-05-30 18:19:41,15.08845996,8.95e-05,53.2167,286.0371,94.3773,265.7321,6.3802e-05,7.28e-06,0.0,0 STARLINK-4561,1 53563U 22101AN  23150.76367408  .00000728  00000-0  63802-4 0  9990,2 53563  53.2167 286.0371 0000895  94.3773 265.7321 15.08845996 43378,6917.862,95.437,540.346,539.108,0.0
53563.0,STARLINK-4561,PAYLOAD,2023-05-31 14:59:41,15.08848236,8.42e-05,53.2159,282.1713,97.6489,262.4598,0.00014923,2.089e-05,0.0,0 STARLINK-4561,1 53563U 22101AN  23151.62478956  .00002089  00000-0  14923-3 0  9998,2 53563  53.2159 282.1713 0000842  97.6489 262.4598 15.08848236 43503,6917.855,95.437,540.303,539.138,0.0
53563.0,STARLINK-4561,PAYLOAD,2023-06-01 02:07:23,15.08844545,5.76e-05,53.2159,280.0913,92.9873,267.1185,9.4126e-05,1.211e-05,0.0,0 STARLINK-4561,1 53563U 22101AN  23152.08847186  .00001211  00000-0  94126-4 0  9994,2 53563  53.2159 280.0913 0000576  92.9873 267.1185 15.08844545 43571,6917.866,95.437,540.13,539.333,0.0
53563.0,STARLINK-4561,PAYLOAD,2023-06-01 08:28:56,15.08836206,7.14e-05,53.2162,278.8977,123.3374,236.7687,0.00015666,2.206e-05,0.0,0 STARLINK-4561,1 53563U 22101AN  23152.35343531  .00002206  00000-0  15666-3 0  9995,2 53563  53.2162 278.8977 0000714 123.3374 236.7687 15.08836206 43618,6917.892,95.438,540.251,539.263,0.0
53563.0,STARLINK-4561,PAYLOAD,2023-06-02 13:05:53,15.08836567,9.15e-05,53.2159,273.5481,84.952,275.1577,-2.6429e-05,-7.08e-06,0.0,0 STARLINK-4561,1 53563U 22101AN  23153.54576200 -.00000708  00000-0 -26429-4 0  9995,2 53563  53.2159 273.5481 0000915  84.9520 275.1577 15.08836567 43798,6917.891,95.438,540.389,539.123,0.0
53563.0,STARLINK-4561,PAYLOAD,2023-06-02 14:41:16,15.08838495,7.65e-05,53.2161,273.2509,76.0488,284.0589,-2.0953e-05,-6.21e-06,0.0,0 STARLINK-4561,1 53563U 22101AN  23153.61200053 -.00000621  00000-0 -20953-4 0  9993,2 53563  53.2161 273.2509 0000765  76.0488 284.0589 15.08838495 43803,6917.885,95.438,540.279,539.221,0.0
53563.0,STARLINK-4561,PAYLOAD,2023-06-03 12:56:41,15.08821199,7.59e-05,53.2159,269.0882,67.3837,292.7235,0.00025999,3.85e-05,0.0,0 STARLINK-4561,1 53563U 22101AN  23154.53936867  .00003850  00000-0  25999-3 0  9993,2 53563  53.2159 269.0882 0000759  67.3837 292.7235 15.08821199 43943,6917.938,95.439,540.328,539.278,0.0
53563.0,STARLINK-4561,PAYLOAD,2023-06-03 14:32:04,15.08836543,8.99e-05,53.216,268.7906,62.5031,297.6053,6.6342e-05,7.68e-06,0.0,0 STARLINK-4561,1 53563U 22101AN  23154.60560325  .00000768  00000-0  66342-4 0  9996,2 53563  53.2160 268.7906 0000899  62.5031 297.6053 15.08836543 43958,6917.891,95.438,540.378,539.134,0.0
